STARLINK-3059_new
1 19181C 21082BD  21326.12745368 -.00652760  00000-0 -11446-1 0  3265
2 19181  70.0000 293.3297 0003467 272.0184  33.5957 15.51050308    12
STARLINK-3059_old
1 29181C 21082BD  21325.18309255 -.00660369  00000-0 -11047-1 0  3251
2 29181  69.9999 295.9139 0003358 274.1950 157.4328 15.52385633    13
